[{"OBJECT_NAME":"OOV-CUBE (TUBSAT-30)","OBJECT_ID":"2024-128F","EPOCH":"2026-04-25T05:14:51.639936","MEAN_MOTION":15.02502609,"ECCENTRICITY":0.0050615,"INCLINATION":61.9958,"RA_OF_ASC_NODE":50.2328,"ARG_OF_PERICENTER":122.1099,"MEAN_ANOMALY":238.492,"EPHEMERIS_TYPE":0,"CLASSIFICATION_TYPE":"U","NORAD_CAT_ID":60240,"ELEMENT_SET_NO":999,"REV_AT_EPOCH":9815,"BSTAR":0.00019941,"MEAN_MOTION_DOT":2.518e-5,"MEAN_MOTION_DDOT":0},{"OBJECT_NAME":"LPNTSAT-001 (IOD-1)","OBJECT_ID":"2026-065A","EPOCH":"2026-04-25T14:53:51.059040","MEAN_MOTION":15.18368758,"ECCENTRICITY":0.0016893,"INCLINATION":97.4087,"RA_OF_ASC_NODE":357.2309,"ARG_OF_PERICENTER":181.6654,"MEAN_ANOMALY":178.4526,"EPHEMERIS_TYPE":0,"CLASSIFICATION_TYPE":"U","NORAD_CAT_ID":68408,"ELEMENT_SET_NO":999,"REV_AT_EPOCH":428,"BSTAR":0.00011668,"MEAN_MOTION_DOT":2.338e-5,"MEAN_MOTION_DDOT":0}]
