OOV-CUBE (TUBSAT-30)    
1 60240U 24128F   26115.21865324  .00002518  00000+0  19941-3 0  9997
2 60240  61.9958  50.2328 0050615 122.1099 238.4920 15.02502609 98154
LPNTSAT-001 (IOD-1)     
1 68408U 26065A   26115.62072985  .00002338  00000+0  11668-3 0  9999
2 68408  97.4087 357.2309 0016893 181.6654 178.4526 15.18368758  4289
